{
  "norad_id": 48573,
  "name": "STARLINK-2224",
  "history": [
    {
      "epoch": "2026-03-28T14:21:44.009856Z",
      "apogee_km": 476.11997018830607,
      "perigee_km": 474.28190495345007,
      "latitude_deg": -2.036818024617019e-05,
      "longitude_deg": -2.3444610031837483,
      "height_km": 476.142033322472,
      "semi_major_axis_km": 6853.337937570878,
      "eccentricity": 0.0001341,
      "inclination_deg": 53.1615,
      "raan_deg": 39.1055,
      "arg_perigee_deg": 92.6787,
      "mean_anomaly_deg": 267.4367,
      "mean_motion_rev_day": 15.30204733
    },
    {
      "epoch": "2026-03-29T02:54:08.290656Z",
      "apogee_km": 476.07396795085606,
      "perigee_km": 474.26606555983653,
      "latitude_deg": 2.283451469705184e-05,
      "longitude_deg": 166.61129838446521,
      "height_km": 476.25372349889204,
      "semi_major_axis_km": 6853.307016755346,
      "eccentricity": 0.0001319,
      "inclination_deg": 53.161,
      "raan_deg": 36.6774,
      "arg_perigee_deg": 101.8453,
      "mean_anomaly_deg": 258.2696,
      "mean_motion_rev_day": 15.30215089
    },
    {
      "epoch": "2026-03-30T02:24:57.532896Z",
      "apogee_km": 476.217410852968,
      "perigee_km": 474.28612589803924,
      "latitude_deg": -5.7991631052286775e-05,
      "longitude_deg": 168.38969027085747,
      "height_km": 476.22346835748334,
      "semi_major_axis_km": 6853.388768375503,
      "eccentricity": 0.0001409,
      "inclination_deg": 53.1599,
      "raan_deg": 32.1267,
      "arg_perigee_deg": 94.3843,
      "mean_anomaly_deg": 265.7318,
      "mean_motion_rev_day": 15.30187709
    },
    {
      "epoch": "2026-03-30T05:33:03.975264Z",
      "apogee_km": 476.21216405792893,
      "perigee_km": 474.2918444589359,
      "latitude_deg": 6.081227826893503e-06,
      "longitude_deg": 120.62724003730624,
      "height_km": 476.2752651587772,
      "semi_major_axis_km": 6853.389004258432,
      "eccentricity": 0.0001401,
      "inclination_deg": 53.1605,
      "raan_deg": 31.5198,
      "arg_perigee_deg": 97.4987,
      "mean_anomaly_deg": 262.6173,
      "mean_motion_rev_day": 15.3018763
    },
    {
      "epoch": "2026-03-30T05:33:03.976128Z",
      "apogee_km": 476.212232591819,
      "perigee_km": 474.29177592504493,
      "latitude_deg": 5.177524251469214e-06,
      "longitude_deg": 120.62723575415122,
      "height_km": 476.2752741008571,
      "semi_major_axis_km": 6853.389004258432,
      "eccentricity": 0.00014011,
      "inclination_deg": 53.1605,
      "raan_deg": 31.5198,
      "arg_perigee_deg": 97.4987,
      "mean_anomaly_deg": 262.6173,
      "mean_motion_rev_day": 15.3018763
    },
    {
      "epoch": "2026-03-30T19:39:32.245344Z",
      "apogee_km": 476.25130629425075,
      "perigee_km": 474.182552877066,
      "latitude_deg": -1.0457434962239015e-05,
      "longitude_deg": -94.3003525312561,
      "height_km": 476.35309589298976,
      "semi_major_axis_km": 6853.353929585658,
      "eccentricity": 0.00015093,
      "inclination_deg": 53.1628,
      "raan_deg": 28.7894,
      "arg_perigee_deg": 103.3063,
      "mean_anomaly_deg": 256.8106,
      "mean_motion_rev_day": 15.30199377
    },
    {
      "epoch": "2026-03-31T12:54:08.337600Z",
      "apogee_km": 476.1555777186459,
      "perigee_km": 474.39918468103224,
      "latitude_deg": -1.532181160746272e-05,
      "longitude_deg": 3.005200818657415,
      "height_km": 476.0573454754772,
      "semi_major_axis_km": 6853.414381199839,
      "eccentricity": 0.00012814,
      "inclination_deg": 53.1606,
      "raan_deg": 25.4535,
      "arg_perigee_deg": 82.2667,
      "mean_anomaly_deg": 277.8479,
      "mean_motion_rev_day": 15.30179131
    },
    {
      "epoch": "2026-04-01T12:24:57.024288Z",
      "apogee_km": 476.03046105592875,
      "perigee_km": 474.49667000936097,
      "latitude_deg": 4.654974905659485e-06,
      "longitude_deg": 4.785589668331274,
      "height_km": 476.151983434121,
      "semi_major_axis_km": 6853.400565532645,
      "eccentricity": 0.0001119,
      "inclination_deg": 53.1611,
      "raan_deg": 20.9024,
      "arg_perigee_deg": 89.2548,
      "mean_anomaly_deg": 270.8581,
      "mean_motion_rev_day": 15.30183758
    },
    {
      "epoch": "2026-04-02T11:55:44.688864Z",
      "apogee_km": 476.0414456872004,
      "perigee_km": 474.42638029784393,
      "latitude_deg": 2.438925363403721e-05,
      "longitude_deg": 6.568948452587752,
      "height_km": 476.1102813490021,
      "semi_major_axis_km": 6853.370912992522,
      "eccentricity": 0.00011783,
      "inclination_deg": 53.1609,
      "raan_deg": 16.35,
      "arg_perigee_deg": 88.4443,
      "mean_anomaly_deg": 271.6693,
      "mean_motion_rev_day": 15.30193689
    },
    {
      "epoch": "2026-04-02T22:54:07.103232Z",
      "apogee_km": 476.0427039999231,
      "perigee_km": 474.40941051611753,
      "latitude_deg": -1.9870138252687786e-05,
      "longitude_deg": -160.59871809958872,
      "height_km": 476.1058190791441,
      "semi_major_axis_km": 6853.3630572580205,
      "eccentricity": 0.00011916,
      "inclination_deg": 53.1616,
      "raan_deg": 14.2264,
      "arg_perigee_deg": 88.6953,
      "mean_anomaly_deg": 271.4184,
      "mean_motion_rev_day": 15.3019632
    },
    {
      "epoch": "2026-04-03T11:26:32.409600Z",
      "apogee_km": 476.35798953936046,
      "perigee_km": 474.05732173846354,
      "latitude_deg": -3.931200622752003e-06,
      "longitude_deg": 8.354236167886643,
      "height_km": 475.9032518581001,
      "semi_major_axis_km": 6853.344655638912,
      "eccentricity": 0.00016785,
      "inclination_deg": 53.1627,
      "raan_deg": 11.7998,
      "arg_perigee_deg": 79.8742,
      "mean_anomaly_deg": 280.2448,
      "mean_motion_rev_day": 15.30202483
    },
    {
      "epoch": "2026-04-04T03:07:02.185824Z",
      "apogee_km": 475.96725621054156,
      "perigee_km": 474.18418732459213,
      "latitude_deg": 1.4176090419611813e-05,
      "longitude_deg": 129.55333507255452,
      "height_km": 475.9813901114364,
      "semi_major_axis_km": 6853.212721767566,
      "eccentricity": 0.00013009,
      "inclination_deg": 53.1611,
      "raan_deg": 8.7667,
      "arg_perigee_deg": 90.4821,
      "mean_anomaly_deg": 269.6329,
      "mean_motion_rev_day": 15.30246671
    },
    {
      "epoch": "2026-04-04T23:29:44.696256Z",
      "apogee_km": 476.35481384678224,
      "perigee_km": 474.1258214079962,
      "latitude_deg": 2.1876830639390687e-05,
      "longitude_deg": 179.09679896777834,
      "height_km": 476.3793827805462,
      "semi_major_axis_km": 6853.377317627389,
      "eccentricity": 0.00016262,
      "inclination_deg": 53.1614,
      "raan_deg": 4.8242,
      "arg_perigee_deg": 102.5038,
      "mean_anomaly_deg": 257.6145,
      "mean_motion_rev_day": 15.30191544
    },
    {
      "epoch": "2026-04-05T18:18:23.538816Z",
      "apogee_km": 476.21922952392833,
      "perigee_km": 474.2906850271511,
      "latitude_deg": -2.009494485402447e-06,
      "longitude_deg": -107.48029589202754,
      "height_km": 476.0514335963509,
      "semi_major_axis_km": 6853.391957275539,
      "eccentricity": 0.0001407,
      "inclination_deg": 53.1601,
      "raan_deg": 1.1815,
      "arg_perigee_deg": 83.9621,
      "mean_anomaly_deg": 276.154,
      "mean_motion_rev_day": 15.30186641
    },
    {
      "epoch": "2026-04-06T03:42:41.760000Z",
      "apogee_km": 476.06313467340533,
      "perigee_km": 474.2722290939355,
      "latitude_deg": -3.4156824452394023e-06,
      "longitude_deg": 109.23852850317506,
      "height_km": 475.9072553082896,
      "semi_major_axis_km": 6853.30468188367,
      "eccentricity": 0.00013066,
      "inclination_deg": 53.1595,
      "raan_deg": 359.3625,
      "arg_perigee_deg": 79.8088,
      "mean_anomaly_deg": 280.306,
      "mean_motion_rev_day": 15.30215871
    },
    {
      "epoch": "2026-04-07T00:05:24.114048Z",
      "apogee_km": 476.1193285127547,
      "perigee_km": 474.35828506544203,
      "latitude_deg": 3.4885497483821955e-05,
      "longitude_deg": 158.78326727962155,
      "height_km": 476.0749277776301,
      "semi_major_axis_km": 6853.375806789098,
      "eccentricity": 0.00012848,
      "inclination_deg": 53.1603,
      "raan_deg": 355.4206,
      "arg_perigee_deg": 85.9647,
      "mean_anomaly_deg": 274.1501,
      "mean_motion_rev_day": 15.3019205
    },
    {
      "epoch": "2026-04-07T20:28:05.216160Z",
      "apogee_km": 476.09515630063106,
      "perigee_km": 474.3242515123411,
      "latitude_deg": 5.008447666280745e-05,
      "longitude_deg": -151.66898085470513,
      "height_km": 476.1739184519856,
      "semi_major_axis_km": 6853.346703906486,
      "eccentricity": 0.0001292,
      "inclination_deg": 53.1601,
      "raan_deg": 351.4765,
      "arg_perigee_deg": 94.2852,
      "mean_anomaly_deg": 265.8297,
      "mean_motion_rev_day": 15.30201797
    },
    {
      "epoch": "2026-04-07T22:02:08.373408Z",
      "apogee_km": 476.0984844324512,
      "perigee_km": 474.3179853404281,
      "latitude_deg": -1.0106544508975096e-05,
      "longitude_deg": -175.5499578222191,
      "height_km": 476.17720895332866,
      "semi_major_axis_km": 6853.345234886439,
      "eccentricity": 0.0001299,
      "inclination_deg": 53.1603,
      "raan_deg": 351.1731,
      "arg_perigee_deg": 94.5679,
      "mean_anomaly_deg": 265.547,
      "mean_motion_rev_day": 15.30202289
    },
    {
      "epoch": "2026-04-09T19:29:42.083232Z",
      "apogee_km": 476.14795424757176,
      "perigee_km": 474.36196030350675,
      "latitude_deg": -2.544430903218699e-05,
      "longitude_deg": -148.10148227275772,
      "height_km": 476.2430851464623,
      "semi_major_axis_km": 6853.391957275539,
      "eccentricity": 0.0001303,
      "inclination_deg": 53.1618,
      "raan_deg": 342.379,
      "arg_perigee_deg": 95.7778,
      "mean_anomaly_deg": 264.3371,
      "mean_motion_rev_day": 15.30186641
    }
  ]
}